CZ-2C R/B               
1 52794U 22058K   25332.67048555  .00030556  00000+0  56561-3 0  9993
2 52794  50.1900 115.2451 0047072 140.4308 220.0112 15.47481588194455
CZ-2C R/B               
1 54039U 22132E   25332.50591473  .00025540  00000+0  39747-3 0  9998
2 54039  97.2954 328.4464 0024051 103.5417 256.8518 15.53550390174624
GSLV R/B                
1 54149U 22138AN  25332.60886556  .00002410  00000+0  21130-3 0  9994
2 54149  87.3843 200.2051 0022599 152.6652 207.5773 14.96018997168811
XRISM                   
1 57800U 23137A   25332.36000277  .00005451  00000+0  32026-3 0  9996
2 57800  31.0010 218.3743 0007573  99.3903 260.7592 15.10142623122450
ACS3                    
1 59588U 24077B   25331.43767900  .00009057  00000+0  79378-2 0  9991
2 59588  97.2878 290.4584 0074855   6.8658 353.3510 13.84395279 80023
