CCSDS_OMM_VERS = 2.0
CREATION_DATE  = 
ORIGINATOR     = 

OBJECT_NAME    = CZ-2C R/B
OBJECT_ID      = 2022-058K
CENTER_NAME    = EARTH
REF_FRAME      = TEME
TIME_SYSTEM    = UTC
MEAN_ELEMENT_THEORY = SGP/SGP4

EPOCH          = 2025-11-28T16:05:29.951520
MEAN_MOTION    = 15.47481588
ECCENTRICITY   = .00470726
INCLINATION    = 50.1900
RA_OF_ASC_NODE = 115.2451
ARG_OF_PERICENTER = 140.4308
MEAN_ANOMALY   = 220.0112

EPHEMERIS_TYPE = 0
CLASSIFICATION_TYPE = U
NORAD_CAT_ID   = 52794
ELEMENT_SET_NO = 999
REV_AT_EPOCH   = 19445
BSTAR          = .56560912E-3
MEAN_MOTION_DOT = .30556E-3
MEAN_MOTION_DDOT = 0

CCSDS_OMM_VERS = 2.0
CREATION_DATE  = 
ORIGINATOR     = 

OBJECT_NAME    = CZ-2C R/B
OBJECT_ID      = 2022-132E
CENTER_NAME    = EARTH
REF_FRAME      = TEME
TIME_SYSTEM    = UTC
MEAN_ELEMENT_THEORY = SGP/SGP4

EPOCH          = 2025-11-28T12:08:31.032672
MEAN_MOTION    = 15.53550390
ECCENTRICITY   = .00240511
INCLINATION    = 97.2954
RA_OF_ASC_NODE = 328.4464
ARG_OF_PERICENTER = 103.5417
MEAN_ANOMALY   = 256.8518

EPHEMERIS_TYPE = 0
CLASSIFICATION_TYPE = U
NORAD_CAT_ID   = 54039
ELEMENT_SET_NO = 999
REV_AT_EPOCH   = 17462
BSTAR          = .39747252E-3
MEAN_MOTION_DOT = .2554E-3
MEAN_MOTION_DDOT = 0

CCSDS_OMM_VERS = 2.0
CREATION_DATE  = 
ORIGINATOR     = 

OBJECT_NAME    = GSLV R/B
OBJECT_ID      = 2022-138AN
CENTER_NAME    = EARTH
REF_FRAME      = TEME
TIME_SYSTEM    = UTC
MEAN_ELEMENT_THEORY = SGP/SGP4

EPOCH          = 2025-11-28T14:36:45.984384
MEAN_MOTION    = 14.96018997
ECCENTRICITY   = .00225995
INCLINATION    = 87.3843
RA_OF_ASC_NODE = 200.2051
ARG_OF_PERICENTER = 152.6652
MEAN_ANOMALY   = 207.5773

EPHEMERIS_TYPE = 0
CLASSIFICATION_TYPE = U
NORAD_CAT_ID   = 54149
ELEMENT_SET_NO = 999
REV_AT_EPOCH   = 16881
BSTAR          = .21130227E-3
MEAN_MOTION_DOT = .241E-4
MEAN_MOTION_DDOT = 0

CCSDS_OMM_VERS = 2.0
CREATION_DATE  = 
ORIGINATOR     = 

OBJECT_NAME    = XRISM
OBJECT_ID      = 2023-137A
CENTER_NAME    = EARTH
REF_FRAME      = TEME
TIME_SYSTEM    = UTC
MEAN_ELEMENT_THEORY = SGP/SGP4

EPOCH          = 2025-11-28T08:38:24.239328
MEAN_MOTION    = 15.10142623
ECCENTRICITY   = .00075735
INCLINATION    = 31.0010
RA_OF_ASC_NODE = 218.3743
ARG_OF_PERICENTER = 99.3903
MEAN_ANOMALY   = 260.7592

EPHEMERIS_TYPE = 0
CLASSIFICATION_TYPE = U
NORAD_CAT_ID   = 57800
ELEMENT_SET_NO = 999
REV_AT_EPOCH   = 12245
BSTAR          = .32026079E-3
MEAN_MOTION_DOT = .5451E-4
MEAN_MOTION_DDOT = 0

CCSDS_OMM_VERS = 2.0
CREATION_DATE  = 
ORIGINATOR     = 

OBJECT_NAME    = ACS3
OBJECT_ID      = 2024-077B
CENTER_NAME    = EARTH
REF_FRAME      = TEME
TIME_SYSTEM    = UTC
MEAN_ELEMENT_THEORY = SGP/SGP4

EPOCH          = 2025-11-27T10:30:15.465600
MEAN_MOTION    = 13.84395279
ECCENTRICITY   = .00748553
INCLINATION    = 97.2878
RA_OF_ASC_NODE = 290.4584
ARG_OF_PERICENTER = 6.8658
MEAN_ANOMALY   = 353.3510

EPHEMERIS_TYPE = 0
CLASSIFICATION_TYPE = U
NORAD_CAT_ID   = 59588
ELEMENT_SET_NO = 999
REV_AT_EPOCH   = 8002
BSTAR          = .79378247E-2
MEAN_MOTION_DOT = .9057E-4
MEAN_MOTION_DDOT = 0

